[{"OBJECT_NAME":"STARLINK-34971","OBJECT_ID":"2025-179X","EPOCH":"2026-03-09T17:10:08.234112","MEAN_MOTION":15.0565359,"ECCENTRICITY":0.00010742,"INCLINATION":97.6028,"RA_OF_ASC_NODE":113.0124,"ARG_OF_PERICENTER":111.6129,"MEAN_ANOMALY":248.5213,"EPHEMERIS_TYPE":0,"CLASSIFICATION_TYPE":"U","NORAD_CAT_ID":65256,"ELEMENT_SET_NO":999,"REV_AT_EPOCH":3155,"BSTAR":0.00024395888,"MEAN_MOTION_DOT":3.461e-5,"MEAN_MOTION_DDOT":0},{"OBJECT_NAME":"SL-16 DEB","OBJECT_ID":"1992-093CH","EPOCH":"2026-03-09T20:51:36.974880","MEAN_MOTION":14.88689084,"ECCENTRICITY":0.0074931,"INCLINATION":70.8861,"RA_OF_ASC_NODE":315.1013,"ARG_OF_PERICENTER":150.6914,"MEAN_ANOMALY":290.361,"EPHEMERIS_TYPE":0,"CLASSIFICATION_TYPE":"U","NORAD_CAT_ID":22392,"ELEMENT_SET_NO":999,"REV_AT_EPOCH":74900,"BSTAR":0.00054238016,"MEAN_MOTION_DOT":5.266e-5,"MEAN_MOTION_DDOT":0}]
